UNKNOWN                 
1 82139U          25320.62699679  .00003940  00000+0  19792-2 0  9994
2 82139  99.0259  28.1934 0084119 117.1266 243.8517 14.15262996476421
UNKNOWN                 
1 82162U          25319.74326618  .00004862  00000+0  72383-2 0  9990
2 82162 100.4779 242.6961 0061448 302.9946  56.5291 13.53291450500652
UNKNOWN                 
1 82180U          25317.17498021  .00042825  00000+0  55072-2 0  9990
2 82180  65.6558  11.9328 0326753 232.3485 124.7559 14.49940193597461
UNKNOWN                 
1 82189U          25320.64616385  .00000704  00000+0  25498-3 0  9990
2 82189  74.0336  96.1592 0017444 292.7432  67.1877 14.35182784628672
UNKNOWN                 
1 82199U          25321.57892109  .00000885  00000+0  75468-3 0  9996
2 82199  82.9664 252.7948 0038268 105.4108  77.0973 13.85739013606206
UNKNOWN                 
1 82205U          25317.31324237  .00011023  00000+0  30738-2 0  9999
2 82205  63.0104 328.9022 0494766 289.8781  64.9605 13.92981876603900
UNKNOWN                 
1 82223U          25320.61833463  .00003825  00000+0  20794-2 0  9994
2 82223  99.3196 205.5672 0070000  57.3901 303.4000 14.11665576445101
UNKNOWN                 
1 82250U          25319.97629925  .00005148  00000+0  26893-2 0  9993
2 82250  98.9064 225.5370 0071084 269.2980 151.6890 14.13550674612853
UNKNOWN                 
1 82272U          25318.82071419  .00000639  00000+0  21280-2 0  9994
2 82272  67.5234 251.2933 0752848 124.4898 242.9577 12.33510452268496
UNKNOWN                 
1 82295U          25309.55036324  .00001555  00000+0  56719-3 0  9999
2 82295  66.6200 245.9932 0129908 248.5318 110.1886 14.31184947574409
UNKNOWN                 
1 82303U          25321.96449946  .00036849  00000+0  32298-1 0  9994
2 82303  81.9185  24.5094 0040714  98.7803  75.1009 13.84903326510990
UNKNOWN                 
1 82311U          25314.10952784  .00000797  00000+0  11829-2 0  9991
2 82311  99.4368   9.4210 0108454  30.7088 330.0337 13.54479600545901
