CCSDS_OMM_VERS = 2.0
CREATION_DATE  = 
ORIGINATOR     = 

OBJECT_NAME    = UNKNOWN
OBJECT_ID      = 
CENTER_NAME    = EARTH
REF_FRAME      = TEME
TIME_SYSTEM    = UTC
MEAN_ELEMENT_THEORY = SGP/SGP4

EPOCH          = 2025-11-16T15:02:52.522656
MEAN_MOTION    = 14.15262996
ECCENTRICITY   = .0084119
INCLINATION    = 99.0259
RA_OF_ASC_NODE = 28.1934
ARG_OF_PERICENTER = 117.1266
MEAN_ANOMALY   = 243.8517

EPHEMERIS_TYPE = 0
CLASSIFICATION_TYPE = U
NORAD_CAT_ID   = 82139
ELEMENT_SET_NO = 999
REV_AT_EPOCH   = 47642
BSTAR          = .19792E-2
MEAN_MOTION_DOT = .394E-4
MEAN_MOTION_DDOT = 0

CCSDS_OMM_VERS = 2.0
CREATION_DATE  = 
ORIGINATOR     = 

OBJECT_NAME    = UNKNOWN
OBJECT_ID      = 
CENTER_NAME    = EARTH
REF_FRAME      = TEME
TIME_SYSTEM    = UTC
MEAN_ELEMENT_THEORY = SGP/SGP4

EPOCH          = 2025-11-15T17:50:18.197952
MEAN_MOTION    = 13.53291450
ECCENTRICITY   = .0061448
INCLINATION    = 100.4779
RA_OF_ASC_NODE = 242.6961
ARG_OF_PERICENTER = 302.9946
MEAN_ANOMALY   = 56.5291

EPHEMERIS_TYPE = 0
CLASSIFICATION_TYPE = U
NORAD_CAT_ID   = 82162
ELEMENT_SET_NO = 999
REV_AT_EPOCH   = 50065
BSTAR          = .72383E-2
MEAN_MOTION_DOT = .4862E-4
MEAN_MOTION_DDOT = 0

CCSDS_OMM_VERS = 2.0
CREATION_DATE  = 
ORIGINATOR     = 

OBJECT_NAME    = UNKNOWN
OBJECT_ID      = 
CENTER_NAME    = EARTH
REF_FRAME      = TEME
TIME_SYSTEM    = UTC
MEAN_ELEMENT_THEORY = SGP/SGP4

EPOCH          = 2025-11-13T04:11:58.290144
MEAN_MOTION    = 14.49940193
ECCENTRICITY   = .0326753
INCLINATION    = 65.6558
RA_OF_ASC_NODE = 11.9328
ARG_OF_PERICENTER = 232.3485
MEAN_ANOMALY   = 124.7559

EPHEMERIS_TYPE = 0
CLASSIFICATION_TYPE = U
NORAD_CAT_ID   = 82180
ELEMENT_SET_NO = 999
REV_AT_EPOCH   = 59746
BSTAR          = .55072E-2
MEAN_MOTION_DOT = .42825E-3
MEAN_MOTION_DDOT = 0

CCSDS_OMM_VERS = 2.0
CREATION_DATE  = 
ORIGINATOR     = 

OBJECT_NAME    = UNKNOWN
OBJECT_ID      = 
CENTER_NAME    = EARTH
REF_FRAME      = TEME
TIME_SYSTEM    = UTC
MEAN_ELEMENT_THEORY = SGP/SGP4

EPOCH          = 2025-11-16T15:30:28.556640
MEAN_MOTION    = 14.35182784
ECCENTRICITY   = .0017444
INCLINATION    = 74.0336
RA_OF_ASC_NODE = 96.1592
ARG_OF_PERICENTER = 292.7432
MEAN_ANOMALY   = 67.1877

EPHEMERIS_TYPE = 0
CLASSIFICATION_TYPE = U
NORAD_CAT_ID   = 82189
ELEMENT_SET_NO = 999
REV_AT_EPOCH   = 62867
BSTAR          = .25498E-3
MEAN_MOTION_DOT = .704E-5
MEAN_MOTION_DDOT = 0

CCSDS_OMM_VERS = 2.0
CREATION_DATE  = 
ORIGINATOR     = 

OBJECT_NAME    = UNKNOWN
OBJECT_ID      = 
CENTER_NAME    = EARTH
REF_FRAME      = TEME
TIME_SYSTEM    = UTC
MEAN_ELEMENT_THEORY = SGP/SGP4

EPOCH          = 2025-11-17T13:53:38.782176
MEAN_MOTION    = 13.85739013
ECCENTRICITY   = .0038268
INCLINATION    = 82.9664
RA_OF_ASC_NODE = 252.7948
ARG_OF_PERICENTER = 105.4108
MEAN_ANOMALY   = 77.0973

EPHEMERIS_TYPE = 0
CLASSIFICATION_TYPE = U
NORAD_CAT_ID   = 82199
ELEMENT_SET_NO = 999
REV_AT_EPOCH   = 60620
BSTAR          = .75468E-3
MEAN_MOTION_DOT = .885E-5
MEAN_MOTION_DDOT = 0

CCSDS_OMM_VERS = 2.0
CREATION_DATE  = 
ORIGINATOR     = 

OBJECT_NAME    = UNKNOWN
OBJECT_ID      = 
CENTER_NAME    = EARTH
REF_FRAME      = TEME
TIME_SYSTEM    = UTC
MEAN_ELEMENT_THEORY = SGP/SGP4

EPOCH          = 2025-11-13T07:31:04.140768
MEAN_MOTION    = 13.92981876
ECCENTRICITY   = .0494766
INCLINATION    = 63.0104
RA_OF_ASC_NODE = 328.9022
ARG_OF_PERICENTER = 289.8781
MEAN_ANOMALY   = 64.9605

EPHEMERIS_TYPE = 0
CLASSIFICATION_TYPE = U
NORAD_CAT_ID   = 82205
ELEMENT_SET_NO = 999
REV_AT_EPOCH   = 60390
BSTAR          = .30738E-2
MEAN_MOTION_DOT = .11023E-3
MEAN_MOTION_DDOT = 0

CCSDS_OMM_VERS = 2.0
CREATION_DATE  = 
ORIGINATOR     = 

OBJECT_NAME    = UNKNOWN
OBJECT_ID      = 
CENTER_NAME    = EARTH
REF_FRAME      = TEME
TIME_SYSTEM    = UTC
MEAN_ELEMENT_THEORY = SGP/SGP4

EPOCH          = 2025-11-16T14:50:24.112032
MEAN_MOTION    = 14.11665576
ECCENTRICITY   = .007
INCLINATION    = 99.3196
RA_OF_ASC_NODE = 205.5672
ARG_OF_PERICENTER = 57.3901
MEAN_ANOMALY   = 303.4000

EPHEMERIS_TYPE = 0
CLASSIFICATION_TYPE = U
NORAD_CAT_ID   = 82223
ELEMENT_SET_NO = 999
REV_AT_EPOCH   = 44510
BSTAR          = .20794E-2
MEAN_MOTION_DOT = .3825E-4
MEAN_MOTION_DDOT = 0

CCSDS_OMM_VERS = 2.0
CREATION_DATE  = 
ORIGINATOR     = 

OBJECT_NAME    = UNKNOWN
OBJECT_ID      = 
CENTER_NAME    = EARTH
REF_FRAME      = TEME
TIME_SYSTEM    = UTC
MEAN_ELEMENT_THEORY = SGP/SGP4

EPOCH          = 2025-11-15T23:25:52.255200
MEAN_MOTION    = 14.13550674
ECCENTRICITY   = .0071084
INCLINATION    = 98.9064
RA_OF_ASC_NODE = 225.5370
ARG_OF_PERICENTER = 269.2980
MEAN_ANOMALY   = 151.6890

EPHEMERIS_TYPE = 0
CLASSIFICATION_TYPE = U
NORAD_CAT_ID   = 82250
ELEMENT_SET_NO = 999
REV_AT_EPOCH   = 61285
BSTAR          = .26893E-2
MEAN_MOTION_DOT = .5148E-4
MEAN_MOTION_DDOT = 0

CCSDS_OMM_VERS = 2.0
CREATION_DATE  = 
ORIGINATOR     = 

OBJECT_NAME    = UNKNOWN
OBJECT_ID      = 
CENTER_NAME    = EARTH
REF_FRAME      = TEME
TIME_SYSTEM    = UTC
MEAN_ELEMENT_THEORY = SGP/SGP4

EPOCH          = 2025-11-14T19:41:49.706016
MEAN_MOTION    = 12.33510452
ECCENTRICITY   = .0752848
INCLINATION    = 67.5234
RA_OF_ASC_NODE = 251.2933
ARG_OF_PERICENTER = 124.4898
MEAN_ANOMALY   = 242.9577

EPHEMERIS_TYPE = 0
CLASSIFICATION_TYPE = U
NORAD_CAT_ID   = 82272
ELEMENT_SET_NO = 999
REV_AT_EPOCH   = 26849
BSTAR          = .2128E-2
MEAN_MOTION_DOT = .639E-5
MEAN_MOTION_DDOT = 0

CCSDS_OMM_VERS = 2.0
CREATION_DATE  = 
ORIGINATOR     = 

OBJECT_NAME    = UNKNOWN
OBJECT_ID      = 
CENTER_NAME    = EARTH
REF_FRAME      = TEME
TIME_SYSTEM    = UTC
MEAN_ELEMENT_THEORY = SGP/SGP4

EPOCH          = 2025-11-05T13:12:31.383936
MEAN_MOTION    = 14.31184947
ECCENTRICITY   = .0129908
INCLINATION    = 66.6200
RA_OF_ASC_NODE = 245.9932
ARG_OF_PERICENTER = 248.5318
MEAN_ANOMALY   = 110.1886

EPHEMERIS_TYPE = 0
CLASSIFICATION_TYPE = U
NORAD_CAT_ID   = 82295
ELEMENT_SET_NO = 999
REV_AT_EPOCH   = 57440
BSTAR          = .56719E-3
MEAN_MOTION_DOT = .1555E-4
MEAN_MOTION_DDOT = 0

CCSDS_OMM_VERS = 2.0
CREATION_DATE  = 
ORIGINATOR     = 

OBJECT_NAME    = UNKNOWN
OBJECT_ID      = 
CENTER_NAME    = EARTH
REF_FRAME      = TEME
TIME_SYSTEM    = UTC
MEAN_ELEMENT_THEORY = SGP/SGP4

EPOCH          = 2025-11-17T23:08:52.753344
MEAN_MOTION    = 13.84903326
ECCENTRICITY   = .0040714
INCLINATION    = 81.9185
RA_OF_ASC_NODE = 24.5094
ARG_OF_PERICENTER = 98.7803
MEAN_ANOMALY   = 75.1009

EPHEMERIS_TYPE = 0
CLASSIFICATION_TYPE = U
NORAD_CAT_ID   = 82303
ELEMENT_SET_NO = 999
REV_AT_EPOCH   = 51099
BSTAR          = .32298E-1
MEAN_MOTION_DOT = .36849E-3
MEAN_MOTION_DDOT = 0

CCSDS_OMM_VERS = 2.0
CREATION_DATE  = 
ORIGINATOR     = 

OBJECT_NAME    = UNKNOWN
OBJECT_ID      = 
CENTER_NAME    = EARTH
REF_FRAME      = TEME
TIME_SYSTEM    = UTC
MEAN_ELEMENT_THEORY = SGP/SGP4

EPOCH          = 2025-11-10T02:37:43.205376
MEAN_MOTION    = 13.54479600
ECCENTRICITY   = .0108454
INCLINATION    = 99.4368
RA_OF_ASC_NODE = 9.4210
ARG_OF_PERICENTER = 30.7088
MEAN_ANOMALY   = 330.0337

EPHEMERIS_TYPE = 0
CLASSIFICATION_TYPE = U
NORAD_CAT_ID   = 82311
ELEMENT_SET_NO = 999
REV_AT_EPOCH   = 54590
BSTAR          = .11829E-2
MEAN_MOTION_DOT = .797E-5
MEAN_MOTION_DDOT = 0

